NORAD_CAT_ID,OBJECT_NAME,OBJECT_TYPE,EPOCH,MEAN_MOTION,ECCENTRICITY,INCLINATION,RA_OF_ASC_NODE,ARG_OF_PERICENTER,MEAN_ANOMALY,BSTAR,MEAN_MOTION_DOT,MEAN_MOTION_DDOT,TLE_LINE0,TLE_LINE1,TLE_LINE2,SEMIMAJOR_AXIS,PERIOD,APOGEE,PERIGEE,DECAYED
54076.0,STARLINK-5201,PAYLOAD,2023-05-05 12:57:30,15.08827911,0.0001121,53.2166,328.6239,94.6812,265.4309,7.2523e-05,8.66e-06,0.0,0 STARLINK-5201,1 54076U 22136AB  23125.53994145  .00000866  00000-0  72523-4 0  9992,2 54076  53.2166 328.6239 0001121  94.6812 265.4309 15.08827911 30458,6917.917,95.438,540.558,539.007,0.0
54076.0,STARLINK-5201,PAYLOAD,2023-05-05 20:54:26,15.08841043,0.0001131,53.2166,327.1374,89.9094,270.2028,0.00011311,1.513e-05,0.0,0 STARLINK-5201,1 54076U 22136AB  23125.87113493  .00001513  00000-0  11311-3 0  9995,2 54076  53.2166 327.1374 0001131  89.9094 270.2028 15.08841043 30502,6917.877,95.437,540.525,538.96,0.0
54076.0,STARLINK-5201,PAYLOAD,2023-05-06 22:20:35,15.08853354,0.0001212,53.2157,322.3796,82.7061,277.4069,0.00024017,3.538e-05,0.0,0 STARLINK-5201,1 54076U 22136AB  23126.93096820  .00003538  00000-0  24017-3 0  9993,2 54076  53.2157 322.3796 0001212  82.7061 277.4069 15.08853354 30661,6917.84,95.437,540.543,538.866,0.0
54076.0,STARLINK-5201,PAYLOAD,2023-05-07 06:17:31,15.08840662,0.0001418,53.2161,320.8923,80.0194,280.0958,4.5658e-05,4.39e-06,0.0,0 STARLINK-5201,1 54076U 22136AB  23127.26217549  .00000439  00000-0  45658-4 0  9995,2 54076  53.2161 320.8923 0001418  80.0194 280.0958 15.08840662 30718,6917.878,95.438,540.724,538.762,0.0
54076.0,STARLINK-5201,PAYLOAD,2023-05-07 19:00:38,15.08819073,0.0001143,53.2153,318.5132,82.9601,277.1521,-0.00020387,-3.529e-05,0.0,0 STARLINK-5201,1 54076U 22136AB  23127.79210842 -.00003529  00000-0 -20387-3 0  9998,2 54076  53.2153 318.5132 0001143  82.9601 277.1521 15.08819073 30797,6917.944,95.439,540.6,539.019,0.0
54076.0,STARLINK-5201,PAYLOAD,2023-05-08 07:43:43,15.08830676,0.0001228,53.2152,316.1343,78.3997,281.7133,0.00047275,7.242e-05,0.0,0 STARLINK-5201,1 54076U 22136AB  23128.32203128  .00007242  00000-0  47275-3 0  9996,2 54076  53.2152 316.1343 0001228  78.3997 281.7133 15.08830676 30876,6917.909,95.438,540.623,538.924,0.0
54076.0,STARLINK-5201,PAYLOAD,2023-05-08 18:51:25,15.08852467,0.0001254,53.2156,314.0529,70.1635,289.9493,0.0015887,0.00025095,0.0,0 STARLINK-5201,1 54076U 22136AB  23128.78571350  .00025095  00000-0  15887-2 0  9990,2 54076  53.2156 314.0529 0001254  70.1635 289.9493 15.08852467 30467,6917.842,95.437,540.575,538.84,0.0
54076.0,STARLINK-5201,PAYLOAD,2023-05-09 18:42:11,15.0887487,0.0001248,53.2161,309.5918,69.0033,291.1093,0.00095028,0.00014882,0.0,0 STARLINK-5201,1 54076U 22136AB  23129.77929931  .00014882  00000-0  95028-3 0  9990,2 54076  53.2161 309.5918 0001248  69.0033 291.1093 15.08874870 30616,6917.774,95.435,540.502,538.775,0.0
54076.0,STARLINK-5201,PAYLOAD,2023-05-10 18:32:58,15.0886048,0.0001076,53.2164,305.1314,80.5899,279.5215,0.00064292,9.965e-05,0.0,0 STARLINK-5201,1 54076U 22136AB  23130.77289514  .00009965  00000-0  64292-3 0  9993,2 54076  53.2164 305.1314 0001076  80.5899 279.5215 15.08860480 31246,6917.818,95.436,540.427,538.938,0.0
54076.0,STARLINK-5201,PAYLOAD,2023-05-11 04:05:17,15.08826869,0.000225,53.216,303.3449,83.2289,276.8959,-0.00017584,-3.085e-05,0.0,0 STARLINK-5201,1 54076U 22136AB  23131.17033909 -.00003085  00000-0 -17584-3 0  9994,2 54076  53.2160 303.3449 0002250  83.2289 276.8959 15.08826869 31304,6917.921,95.438,541.342,538.229,0.0
54076.0,STARLINK-5201,PAYLOAD,2023-05-11 18:23:45,15.0883232,6.24e-05,53.216,300.6723,101.6295,258.4767,0.00074773,0.0001163,0.0,0 STARLINK-5201,1 54076U 22136AB  23131.76649970  .00011630  00000-0  74773-3 0  9996,2 54076  53.2160 300.6723 0000624 101.6295 258.4767 15.08832320 30912,6917.904,95.438,540.201,539.337,0.0
54076.0,STARLINK-5201,PAYLOAD,2023-05-12 18:14:32,15.08846105,8.86e-05,53.2146,296.2116,92.1423,267.9671,0.00054037,8.324e-05,0.0,0 STARLINK-5201,1 54076U 22136AB  23132.76010115  .00008324  00000-0  54037-3 0  9997,2 54076  53.2146 296.2116 0000886  92.1423 267.9671 15.08846105 31544,6917.862,95.437,540.34,539.114,0.0
54076.0,STARLINK-5201,PAYLOAD,2023-05-13 03:46:51,15.08843304,0.0001025,53.2152,294.4289,96.6366,263.4743,0.00029196,4.362e-05,0.0,0 STARLINK-5201,1 54076U 22136AB  23133.15754143  .00004362  00000-0  29196-3 0  9993,2 54076  53.2152 294.4289 0001025  96.6366 263.4743 15.08843304 31126,6917.87,95.437,540.444,539.026,0.0
54076.0,STARLINK-5201,PAYLOAD,2023-05-13 14:54:33,15.08842804,0.0001046,53.2151,292.3476,97.0749,263.0362,0.00020077,2.909e-05,0.0,0 STARLINK-5201,1 54076U 22136AB  23133.62122119  .00002909  00000-0  20077-3 0  9991,2 54076  53.2151 292.3476 0001046  97.0749 263.0362 15.08842804 31670,6917.872,95.437,540.46,539.013,0.0
54076.0,STARLINK-5201,PAYLOAD,2023-05-13 18:05:19,15.08846801,0.0001097,53.2155,291.7527,94.1458,265.9659,0.00024212,3.568e-05,0.0,0 STARLINK-5201,1 54076U 22136AB  23133.75369983  .00003568  00000-0  24212-3 0  9994,2 54076  53.2155 291.7527 0001097  94.1458 265.9659 15.08846801 31216,6917.86,95.437,540.483,538.966,0.0
54076.0,STARLINK-5201,PAYLOAD,2023-05-14 03:37:38,15.08842309,0.0001091,53.215,289.9661,85.9873,274.1244,0.00013618,1.88e-05,0.0,0 STARLINK-5201,1 54076U 22136AB  23134.15114093  .00001880  00000-0  13618-3 0  9992,2 54076  53.2150 289.9661 0001091  85.9873 274.1244 15.08842309 31279,6917.873,95.437,540.493,538.984,0.0
54076.0,STARLINK-5201,PAYLOAD,2023-05-14 19:31:30,15.08842376,0.0001266,53.2159,286.9918,85.7598,274.3539,9.9005e-05,1.288e-05,0.0,0 STARLINK-5201,1 54076U 22136AB  23134.81354303  .00001288  00000-0  99005-4 0  9992,2 54076  53.2159 286.9918 0001266  85.7598 274.3539 15.08842376 31370,6917.873,95.437,540.614,538.862,0.0
54076.0,STARLINK-5201,PAYLOAD,2023-05-15 03:28:25,15.08839495,0.0001226,53.2157,285.5051,85.5965,274.5167,6.7188e-05,7.82e-06,0.0,0 STARLINK-5201,1 54076U 22136AB  23135.14474491  .00000782  00000-0  67188-4 0  9995,2 54076  53.2157 285.5051 0001226  85.5965 274.5167 15.08839495 31426,6917.882,95.438,540.595,538.899,0.0
54076.0,STARLINK-5201,PAYLOAD,2023-05-15 16:11:30,15.0884278,0.0001153,53.2157,283.1241,94.369,265.7434,0.00013238,1.82e-05,0.0,0 STARLINK-5201,1 54076U 22136AB  23135.67466327  .00001820  00000-0  13238-3 0  9992,2 54076  53.2157 283.1241 0001153  94.3690 265.7434 15.08842780 31502,6917.872,95.437,540.535,538.939,0.0
54076.0,STARLINK-5201,PAYLOAD,2023-05-16 12:51:31,15.08838568,0.0001174,53.2155,279.2585,94.4386,265.674,0.00013204,1.814e-05,0.0,0 STARLINK-5201,1 54076U 22136AB  23136.53578683  .00001814  00000-0  13204-3 0  9993,2 54076  53.2155 279.2585 0001174  94.4386 265.6740 15.08838568 32119,6917.885,95.438,540.562,538.938,0.0
54076.0,STARLINK-5201,PAYLOAD,2023-05-16 19:13:04,15.08843298,0.0001162,53.2151,278.0694,93.2174,266.8951,0.00011467,1.538e-05,0.0,0 STARLINK-5201,1 54076U 22136AB  23136.80074449  .00001538  00000-0  11467-3 0  9996,2 54076  53.2151 278.0694 0001162  93.2174 266.8951 15.08843298 31675,6917.87,95.437,540.539,538.931,0.0
54076.0,STARLINK-5201,PAYLOAD,2023-05-17 15:53:04,15.08843811,0.0001073,53.2157,274.203,97.5182,262.5932,0.00010568,1.395e-05,0.0,0 STARLINK-5201,1 54076U 22136AB  23137.66186251  .00001395  00000-0  10568-3 0  9998,2 54076  53.2157 274.2030 0001073  97.5182 262.5932 15.08843811 32281,6917.869,95.437,540.476,538.991,0.0
54076.0,STARLINK-5201,PAYLOAD,2023-05-18 12:33:06,15.08837699,8.76e-05,53.2167,270.343,85.5929,274.5163,-2.0666e-05,-6.17e-06,0.0,0 STARLINK-5201,1 54076U 22136AB  23138.52299157 -.00000617  00000-0 -20666-4 0  9993,2 54076  53.2167 270.3430 0000876  85.5929 274.5163 15.08837699 32410,6917.887,95.438,540.358,539.146,0.0
54076.0,STARLINK-5201,PAYLOAD,2023-05-18 17:19:15,15.08836909,0.000169,53.2152,269.4444,133.9434,226.1698,5.93e-05,6.56e-06,0.0,0 STARLINK-5201,1 54076U 22136AB  23138.72170767  .00000656  00000-0  59300-4 0  9998,2 54076  53.2152 269.4444 0001690 133.9434 226.1698 15.08836909 31960,6917.89,95.438,540.924,538.586,0.0
54076.0,STARLINK-5201,PAYLOAD,2023-05-19 12:23:53,15.08836732,8.44e-05,53.2158,265.8808,95.9556,264.1533,2.7502e-05,1.5e-06,0.0,0 STARLINK-5201,1 54076U 22136AB  23139.51659183  .00000150  00000-0  27502-4 0  9998,2 54076  53.2158 265.8808 0000844  95.9556 264.1533 15.08836732 32080,6917.89,95.438,540.339,539.172,0.0
54076.0,STARLINK-5201,PAYLOAD,2023-05-20 01:06:58,15.0883811,7.56e-05,53.2149,263.5035,91.3235,268.7844,9.1201e-05,1.164e-05,0.0,0 STARLINK-5201,1 54076U 22136AB  23140.04651051  .00001164  00000-0  91201-4 0  9997,2 54076  53.2149 263.5035 0000756  91.3235 268.7844 15.08838110 32642,6917.886,95.438,540.274,539.228,0.0
54076.0,STARLINK-5201,PAYLOAD,2023-05-20 17:00:48,15.08866485,0.0001142,53.215,260.5294,130.0112,230.0981,0.00016047,2.269e-05,0.0,0 STARLINK-5201,1 54076U 22136AB  23140.70889066  .00002269  00000-0  16047-3 0  9990,2 54076  53.2150 260.5294 0001142 130.0112 230.0981 15.08866485 32744,6917.799,95.436,540.454,538.874,0.0
54076.0,STARLINK-5201,PAYLOAD,2023-05-21 00:57:45,15.08841916,0.0001214,53.2149,259.0413,90.4462,269.6669,9.1203e-05,1.164e-05,0.0,0 STARLINK-5201,1 54076U 22136AB  23141.04010679  .00001164  00000-0  91203-4 0  9995,2 54076  53.2149 259.0413 0001214  90.4462 269.6669 15.08841916 32793,6917.875,95.437,540.579,538.9,0.0
54076.0,STARLINK-5201,PAYLOAD,2023-05-21 12:05:27,15.08833205,7.93e-05,53.2144,256.9614,98.0974,262.0108,-2.4899e-05,-6.84e-06,0.0,0 STARLINK-5201,1 54076U 22136AB  23141.50379092 -.00000684  00000-0 -24899-4 0  9998,2 54076  53.2144 256.9614 0000793  98.0974 262.0108 15.08833205 32382,6917.901,95.438,540.315,539.218,0.0
54076.0,STARLINK-5201,PAYLOAD,2023-05-21 15:16:13,15.08838077,8.86e-05,53.2142,256.3669,92.0677,268.0417,3.5995e-05,2.85e-06,0.0,0 STARLINK-5201,1 54076U 22136AB  23141.63626970  .00000285  00000-0  35995-4 0  9996,2 54076  53.2142 256.3669 0000886  92.0677 268.0417 15.08838077 32887,6917.886,95.438,540.364,539.138,0.0
